NORAD_CAT_ID,OBJECT_NAME,OBJECT_TYPE,EPOCH,MEAN_MOTION,ECCENTRICITY,INCLINATION,RA_OF_ASC_NODE,ARG_OF_PERICENTER,MEAN_ANOMALY,BSTAR,MEAN_MOTION_DOT,MEAN_MOTION_DDOT,TLE_LINE0,TLE_LINE1,TLE_LINE2,SEMIMAJOR_AXIS,PERIOD,APOGEE,PERIGEE,DECAYED
52475.0,STARLINK-3882,PAYLOAD,2023-11-13 13:59:59,15.08838909,0.0002198,53.2182,262.1517,78.1436,281.9803,4.3659e-05,4.07e-06,0.0,0 STARLINK-3882,1 52475U 22049AA  23317.58332468  .00000407  00000-0  43659-4 0  9997,2 52475  53.2182 262.1517 0002198  78.1436 281.9803 15.08838909 84362,6917.884,95.438,541.269,538.228,0.0
52475.0,STARLINK-3882,PAYLOAD,2023-11-13 20:21:31,15.08840264,0.0001963,53.2175,260.9621,78.5668,281.5544,0.00010574,1.395e-05,0.0,0 STARLINK-3882,1 52475U 22049AA  23317.84828405  .00001395  00000-0  10574-3 0  9993,2 52475  53.2175 260.9621 0001963  78.5668 281.5544 15.08840264 84406,6917.88,95.438,541.103,538.387,0.0
52475.0,STARLINK-3882,PAYLOAD,2023-11-14 13:50:46,15.08843243,0.0001554,53.2169,257.6899,90.3013,269.8157,0.00015994,2.259e-05,0.0,0 STARLINK-3882,1 52475U 22049AA  23318.57692214  .00002259  00000-0  15994-3 0  9992,2 52475  53.2169 257.6899 0001554  90.3013 269.8157 15.08843243 84512,6917.87,95.437,540.811,538.66,0.0
52475.0,STARLINK-3882,PAYLOAD,2023-11-15 02:33:51,15.08846275,0.0001635,53.2172,255.3101,91.9576,268.1603,0.00018605,2.675e-05,0.0,0 STARLINK-3882,1 52475U 22049AA  23319.10684109  .00002675  00000-0  18605-3 0  9990,2 52475  53.2172 255.3101 0001635  91.9576 268.1603 15.08846275 84750,6917.861,95.437,540.857,538.595,0.0
52475.0,STARLINK-3882,PAYLOAD,2023-11-16 02:24:38,15.08843836,0.0001518,53.2176,250.8505,96.3016,263.8149,0.0001637,2.319e-05,0.0,0 STARLINK-3882,1 52475U 22049AA  23320.10044226  .00002319  00000-0  16370-3 0  9994,2 52475  53.2176 250.8505 0001518  96.3016 263.8149 15.08843836 84904,6917.869,95.437,540.784,538.684,0.0
52475.0,STARLINK-3882,PAYLOAD,2023-11-16 05:35:24,15.08844994,0.0001481,53.2173,250.2551,93.0796,267.0366,0.0001711,2.436e-05,0.0,0 STARLINK-3882,1 52475U 22049AA  23320.23292135  .00002436  00000-0  17110-3 0  9995,2 52475  53.2173 250.2551 0001481  93.0796 267.0366 15.08844994 84761,6917.865,95.437,540.755,538.706,0.0
52475.0,STARLINK-3882,PAYLOAD,2023-11-17 02:15:25,15.08842523,0.0001441,53.2178,246.3887,80.3464,279.7691,-2.5824e-06,-3.29e-06,0.0,0 STARLINK-3882,1 52475U 22049AA  23321.09404285 -.00000329  00000-0 -25824-5 0  9995,2 52475  53.2178 246.3887 0001441  80.3464 279.7691 15.08842523 85051,6917.873,95.437,540.735,538.741,0.0
52475.0,STARLINK-3882,PAYLOAD,2023-11-17 11:47:44,15.08843339,0.0001463,53.2179,244.6048,78.2271,281.8885,1.835e-05,4e-08,0.0,0 STARLINK-3882,1 52475U 22049AA  23321.49148195  .00000004  00000-0  18350-4 0  9997,2 52475  53.2179 244.6048 0001463  78.2271 281.8885 15.08843339 84951,6917.87,95.437,540.747,538.723,0.0
52475.0,STARLINK-3882,PAYLOAD,2023-11-17 19:44:40,15.08834509,0.000162,53.2197,243.1226,96.6563,263.4614,-6.1033e-06,-3.85e-06,0.0,0 STARLINK-3882,1 52475U 22049AA  23321.82268791 -.00000385  00000-0 -61033-5 0  9990,2 52475  53.2197 243.1226 0001620  96.6563 263.4614 15.08834509 85165,6917.897,95.438,540.883,538.641,0.0
52475.0,STARLINK-3882,PAYLOAD,2023-11-17 22:55:26,15.08830836,0.0001583,53.2192,242.5287,103.1114,257.0055,6.3002e-05,7.15e-06,0.0,0 STARLINK-3882,1 52475U 22049AA  23321.95516944  .00000715  00000-0  63002-4 0  9992,2 52475  53.2192 242.5287 0001583 103.1114 257.0055 15.08830836 85026,6917.908,95.438,540.869,538.678,0.0
52475.0,STARLINK-3882,PAYLOAD,2023-11-18 11:38:31,15.08836255,0.0001417,53.2188,240.145,86.2591,273.8564,6.5066e-05,7.48e-06,0.0,0 STARLINK-3882,1 52475U 22049AA  23322.48509197  .00000748  00000-0  65066-4 0  9991,2 52475  53.2188 240.1450 0001417  86.2591 273.8564 15.08836255 85104,6917.892,95.438,540.737,538.777,0.0
52475.0,STARLINK-3882,PAYLOAD,2023-11-19 01:56:59,15.08841042,0.0001405,53.218,237.4714,104.0214,256.0934,8.4051e-05,1.05e-05,0.0,0 STARLINK-3882,1 52475U 22049AA  23323.08124925  .00001050  00000-0  84051-4 0  9992,2 52475  53.2180 237.4714 0001405 104.0214 256.0934 15.08841042 85357,6917.877,95.437,540.714,538.77,0.0
52475.0,STARLINK-3882,PAYLOAD,2023-11-19 11:29:18,15.08846185,0.0001397,53.2182,235.6856,96.177,263.9381,0.00014288,1.987e-05,0.0,0 STARLINK-3882,1 52475U 22049AA  23323.47868585  .00001987  00000-0  14288-3 0  9995,2 52475  53.2182 235.6856 0001397  96.1770 263.9381 15.08846185 85259,6917.861,95.437,540.693,538.76,0.0
52475.0,STARLINK-3882,PAYLOAD,2023-11-19 22:37:01,15.08828462,0.000134,53.2182,233.6031,84.6156,275.4989,0.00038778,5.887e-05,0.0,0 STARLINK-3882,1 52475U 22049AA  23323.94237446  .00005887  00000-0  38778-3 0  9996,2 52475  53.2182 233.6031 0001340  84.6156 275.4989 15.08828462 85328,6917.916,95.438,540.708,538.854,0.0
52475.0,STARLINK-3882,PAYLOAD,2023-11-20 03:23:09,15.08851111,0.0001397,53.2177,232.7119,87.4407,272.6745,0.00022761,3.337e-05,0.0,0 STARLINK-3882,1 52475U 22049AA  23324.14108070  .00003337  00000-0  22761-3 0  9992,2 52475  53.2177 232.7119 0001397  87.4407 272.6745 15.08851111 85518,6917.846,95.437,540.678,538.745,0.0
52475.0,STARLINK-3882,PAYLOAD,2023-11-20 22:27:47,15.08846664,0.0001691,53.2186,229.1427,81.9725,278.1459,0.0001197,1.618e-05,0.0,0 STARLINK-3882,1 52475U 22049AA  23324.93596491  .00001618  00000-0  11970-3 0  9997,2 52475  53.2186 229.1427 0001691  81.9725 278.1459 15.08846664 85474,6917.86,95.437,540.895,538.555,0.0
52475.0,STARLINK-3882,PAYLOAD,2023-11-21 03:13:56,15.088522,0.0001667,53.2168,228.2506,83.2465,276.8717,0.00014679,2.05e-05,0.0,0 STARLINK-3882,1 52475U 22049AA  23325.13468009  .00002050  00000-0  14679-3 0  9993,2 52475  53.2168 228.2506 0001667  83.2465 276.8717 15.08852200 85667,6917.843,95.437,540.861,538.555,0.0
52475.0,STARLINK-3882,PAYLOAD,2023-11-21 11:10:52,15.08838699,0.0001964,53.2162,226.7653,82.6955,277.4261,-4.3827e-05,-9.86e-06,0.0,0 STARLINK-3882,1 52475U 22049AA  23325.46588734 -.00000986  00000-0 -43827-4 0  9993,2 52475  53.2162 226.7653 0001964  82.6955 277.4261 15.08838699 85717,6917.884,95.438,541.108,538.391,0.0
52475.0,STARLINK-3882,PAYLOAD,2023-11-21 20:43:11,15.08844643,0.0001794,53.2174,224.9784,92.8274,267.2923,1.383e-05,-6.8e-07,0.0,0 STARLINK-3882,1 52475U 22049AA  23325.86332387 -.00000068  00000-0  13830-4 0  9999,2 52475  53.2174 224.9784 0001794  92.8274 267.2923 15.08844643 85610,6917.866,95.437,540.972,538.49,0.0
52475.0,STARLINK-3882,PAYLOAD,2023-11-21 23:53:57,15.08844594,0.0001546,53.2168,224.3859,86.3855,273.7314,-5.6716e-06,-3.78e-06,0.0,0 STARLINK-3882,1 52475U 22049AA  23325.99580357 -.00000378  00000-0 -56716-5 0  9991,2 52475  53.2168 224.3859 0001546  86.3855 273.7314 15.08844594 85798,6917.866,95.437,540.801,538.662,0.0
52475.0,STARLINK-3882,PAYLOAD,2023-11-22 20:33:57,15.08852743,0.0001602,53.2175,220.5173,101.4114,258.7058,0.00015536,2.186e-05,0.0,0 STARLINK-3882,1 52475U 22049AA  23326.85691907  .00002186  00000-0  15536-3 0  9991,2 52475  53.2175 220.5173 0001602 101.4114 258.7058 15.08852743 85763,6917.841,95.437,540.815,538.598,0.0
52475.0,STARLINK-3882,PAYLOAD,2023-11-23 02:55:30,15.08859688,0.0001659,53.2173,219.3268,106.4556,253.6618,0.00041168,6.273e-05,0.0,0 STARLINK-3882,1 52475U 22049AA  23327.12187599  .00006273  00000-0  41168-3 0  9990,2 52475  53.2173 219.3268 0001659 106.4556 253.6618 15.08859688 85962,6917.82,95.436,540.833,538.538,0.0
52475.0,STARLINK-3882,PAYLOAD,2023-11-23 17:13:59,15.08830994,0.0001897,53.2171,216.6529,82.417,277.7038,-6.9e-05,-1.386e-05,0.0,0 STARLINK-3882,1 52475U 22049AA  23327.71805037 -.00001386  00000-0 -69000-4 0  9997,2 52475  53.2171 216.6529 0001897  82.4170 277.7038 15.08830994 86052,6917.908,95.438,541.085,538.461,0.0
52475.0,STARLINK-3882,PAYLOAD,2023-11-23 22:00:09,15.08826602,0.0001577,53.2171,215.7606,98.9608,261.1563,-0.00015664,-2.779e-05,0.0,0 STARLINK-3882,1 52475U 22049AA  23327.91677201 -.00002779  00000-0 -15664-3 0  9992,2 52475  53.2171 215.7606 0001577  98.9608 261.1563 15.08826602 85927,6917.921,95.438,540.877,538.695,0.0
52475.0,STARLINK-3882,PAYLOAD,2023-11-24 02:46:18,15.0882366,0.0001486,53.2173,214.868,85.114,275.0021,-9.976e-05,-1.875e-05,0.0,0 STARLINK-3882,1 52475U 22049AA  23328.11549464 -.00001875  00000-0 -99760-4 0  9990,2 52475  53.2173 214.8680 0001486  85.1140 275.0021 15.08823660 85956,6917.93,95.439,540.823,538.767,0.0
52475.0,STARLINK-3882,PAYLOAD,2023-11-24 20:15:33,15.08838533,0.000143,53.2167,211.5986,98.3962,261.7192,0.0005517,8.503e-05,0.0,0 STARLINK-3882,1 52475U 22049AA  23328.84413715  .00008503  00000-0  55170-3 0  9998,2 52475  53.2167 211.5986 0001430  98.3962 261.7192 15.08838533 86226,6917.885,95.438,540.739,538.761,0.0
52475.0,STARLINK-3882,PAYLOAD,2023-11-24 21:50:56,15.08842954,0.0001446,53.2164,211.3012,98.0641,262.0516,0.00069472,0.00010787,0.0,0 STARLINK-3882,1 52475U 22049AA  23328.91037665  .00010787  00000-0  69472-3 0  9999,2 52475  53.2164 211.3012 0001446  98.0641 262.0516 15.08842954 86078,6917.871,95.437,540.737,538.736,0.0
52475.0,STARLINK-3882,PAYLOAD,2023-11-24 23:26:19,15.08847191,0.000147,53.2168,211.0038,98.9899,261.1259,0.00081459,0.00012703,0.0,0 STARLINK-3882,1 52475U 22049AA  23328.97661602  .00012703  00000-0  81459-3 0  9998,2 52475  53.2168 211.0038 0001470  98.9899 261.1259 15.08847191 86081,6917.858,95.437,540.74,538.706,0.0
52475.0,STARLINK-3882,PAYLOAD,2023-11-25 21:41:42,15.08868681,0.0001731,53.2167,206.8417,111.3133,248.8044,0.00089253,0.00013956,0.0,0 STARLINK-3882,1 52475U 22049AA  23329.90396795  .00013956  00000-0  89253-3 0  9991,2 52475  53.2167 206.8417 0001731 111.3133 248.8044 15.08868681 86221,6917.793,95.436,540.855,538.46,0.0
52475.0,STARLINK-3882,PAYLOAD,2023-11-26 00:52:28,15.08888889,0.0001495,53.2166,206.2458,101.3099,258.8062,0.0017145,0.0002714,0.0,0 STARLINK-3882,1 52475U 22049AA  23330.03644384  .00027140  00000-0  17145-2 0  9997,2 52475  53.2166 206.2458 0001495 101.3099 258.8062 15.08888889 86409,6917.731,95.434,540.63,538.562,0.0
